satname,norad_id,inclination_deg,eccentricity,mean_motion_rev_per_day,perigee_km,apogee_km,l1,l2
STARLINK-1494,45760,53.053,0.0005631,15.54798227,398.92091060767325,406.55753340889896,1 45760U 20038AG  25340.44534637  .00061732  00000+0  91069-3 0  9991,2 45760  53.0530 248.4215 0005631 118.5218 241.6360 15.54798227302802
STARLINK-1502,45764,53.0554,0.0002069,15.06390967,545.8063825759691,548.6721032652895,1 45764U 20038AL  25340.53639148  .00003411  00000+0  24783-3 0  9997,2 45764  53.0554 274.7982 0002069  97.2549 262.8675 15.06390967302447
STARLINK-1470,45772,53.0515,0.0007058,15.20317092,500.0253521525965,509.7414237322164,1 45772U 20038AU  25340.15811352  .00012987  00000+0  60340-3 0  9990,2 45772  53.0515 245.7942 0007058  54.6938 305.4716 15.20317092302814
STARLINK-1482,45773,53.0546,0.0001962,15.06380795,545.911654186968,548.6291840582307,1 45773U 20038AV  25340.50137562  .00011312  00000+0  77751-3 0  9999,2 45773  53.0546 254.9552 0001962  94.8415 265.2798 15.06380795302718
STARLINK-1496,45780,53.055,0.0001312,15.06424995,546.2263572422189,548.0435486026663,1 45780U 20038BC  25340.07011033  .00019841  00000+0  13463-2 0  9997,2 45780  53.0550 256.8916 0001312 106.8103 253.3030 15.06424995302632
STARLINK-1497,45781,53.0342,0.0006679,15.65154843,368.28452347548864,377.30241639723044,1 45781U 20038BD  25340.66670139  .00027265  00000+0  27518-3 0  9997,2 45781  53.0342 185.8304 0006679 100.7952  42.5878 15.65154843  5938
STARLINK-1510,45784,53.0243,0.000204,15.86875469,309.6844799075425,312.41366782568093,1 45784U 20038BG  25340.66670139  .00267015  00000+0  98913-3 0  9996,2 45784  53.0243 157.1106 0002040 228.6093  29.9239 15.86875469  5934
STARLINK-1513,45786,53.055,0.000145,15.06387487,546.2457276447767,548.2540898483139,1 45786U 20038BJ  25340.49768805 -.00001628  00000+0 -90430-4 0  9992,2 45786  53.0550 254.9744 0001450  81.6417 278.4736 15.06387487302711
STARLINK-1522,46027,53.0544,0.0001754,15.06401746,545.9915015064589,548.4209119033721,1 46027U 20055A   25340.27928794 -.00000456  00000+0 -11720-4 0  9994,2 46027  53.0544 185.9523 0001754  89.9416 270.1774 15.06401746294804
STARLINK-1523,46028,53.0558,0.0001575,15.06391069,546.1481835931909,548.3296770112365,1 46028U 20055B   25340.29403751 -.00000966  00000+0 -45955-4 0  9991,2 46028  53.0558 185.8911 0001575  88.0725 272.0445 15.06391069294828
STARLINK-1526,46029,53.0545,0.0001562,15.06393643,546.1492988081673,548.3127837842676,1 46029U 20055C   25340.55205450 -.00000529  00000+0 -16618-4 0  9996,2 46029  53.0545 184.7280 0001562  96.7415 263.3752 15.06393643294857
STARLINK-1555,46032,53.0523,0.0001098,15.06425464,546.3731208425061,547.8939102477198,1 46032U 20055F   25340.53728378 -.00022615  00000+0 -15031-2 0  9993,2 46032  53.0523 184.7939 0001098  64.6258 295.4844 15.06425464294856
STARLINK-1556,46033,53.0535,0.0001742,15.06410629,545.9725917316537,548.3853718197042,1 46033U 20055G   25339.98809023  .00002996  00000+0  21990-3 0  9998,2 46033  53.0535 187.2607 0001742  87.3009 272.8179 15.06410629294747
STARLINK-1557,46034,53.0536,0.0001464,15.06417675,546.1435240403343,548.1712502368891,1 46034U 20055H   25339.99176365  .00003956  00000+0  28419-3 0  9996,2 46034  53.0536 187.2428 0001464  88.7178 271.3979 15.06417675294743
STARLINK-1558,46035,53.0524,0.0001447,15.064004,546.2082342372187,548.212429755099,1 46035U 20055J   25340.59628579  .00000545  00000+0  55491-4 0  9996,2 46035  53.0524 184.5277 0001447 109.9825 250.1320 15.06400400294865
STARLINK-1560,46036,53.0516,0.0001522,15.06405802,546.1397403569317,548.2478110450556,1 46036U 20055K   25340.31614225  .00001561  00000+0  12366-3 0  9992,2 46036  53.0516 185.7913 0001522  88.2615 271.8548 15.06405802294826
STARLINK-1567,46038,53.0536,0.0001588,15.06390907,546.1396770372539,548.3391765904098,1 46038U 20055M   25339.99547348 -.00001516  00000+0 -82909-4 0  9990,2 46038  53.0536 187.2269 0001588 104.4430 255.6736 15.06390907294760
STARLINK-1569,46039,53.0547,0.0001391,15.06391305,546.2748872978591,548.2015266804428,1 46039U 20055N   25340.53362671 -.00000095  00000+0  12551-4 0  9993,2 46039  53.0547 184.8129 0001391  90.6118 269.5030 15.06391305294845
STARLINK-1582,46043,53.0549,0.0001405,15.06388808,546.2728437268779,548.2188763105432,1 46043U 20055S   25340.54099550  .00000397  00000+0  45589-4 0  9993,2 46043  53.0549 184.7783 0001405  91.4526 268.6624 15.06388808294848
STARLINK-1591,46045,53.054,0.0001329,15.06387877,546.3283296751088,548.1690971977414,1 46045U 20055U   25340.56679676  .00000279  00000+0  37608-4 0  9992,2 46045  53.0540 184.6625 0001329  93.8352 266.2789 15.06387877294833
STARLINK-1524,46047,53.0521,0.0001332,15.06407749,546.2653552066567,548.1102617356337,1 46047U 20055W   25340.25439816  .00003139  00000+0  22948-3 0  9998,2 46047  53.0521 176.0670 0001332  92.0155 268.0987 15.06407749294948
STARLINK-1527,46048,53.054,0.0001251,15.06410854,546.3119352482281,548.0446491343337,1 46048U 20055X   25340.25070669  .00002305  00000+0  17352-3 0  9993,2 46048  53.0540 176.0787 0001251  66.7877 293.3243 15.06410854294923
STARLINK-1540,46051,53.0548,0.0001381,15.06388471,546.2904973725481,548.2032884037644,1 46051U 20055AA  25340.54927876  .00000558  00000+0  56389-4 0  9992,2 46051  53.0548 174.7442 0001381  64.6027 295.5105 15.06388471295006
STARLINK-1541,46052,53.0547,0.0001253,15.06414387,546.2997235569546,548.0352048556861,1 46052U 20055AB  25340.33549197 -.00004337  00000+0 -27232-3 0  9991,2 46052  53.0547 175.7001 0001253  91.8645 268.2487 15.06414387294931
STARLINK-1543,46053,53.0527,0.0002063,15.06397252,545.7912790302853,548.6486813203064,1 46053U 20055AC  25340.53822156  .00001786  00000+0  13881-3 0  9991,2 46053  53.0527 174.7903 0002063  85.3949 274.7276 15.06397252294990
STARLINK-1548,46054,53.0532,0.0001441,15.06397656,546.2207982075761,548.2166857324119,1 46054U 20055AD  25340.61194522 -.00000692  00000+0 -27580-4 0  9999,2 46054  53.0532 174.4614 0001441  84.4928 275.6226 15.06397656295005
STARLINK-1554,46055,53.0523,0.0001961,15.0639405,545.8717294630615,548.5878583196254,1 46055U 20055AE  25340.33179775 -.00002716  00000+0 -16354-3 0  9997,2 46055  53.0523 175.7185 0001961  95.4810 264.6403 15.06394050294966
STARLINK-1564,46058,53.0554,0.0001769,15.06396366,545.9975995171144,548.4477917774357,1 46058U 20055AH  25340.54196816  .00000909  00000+0  79918-4 0  9994,2 46058  53.0554 175.2365 0001769  87.5289 272.5903 15.06396366294983
